STARLINK-2660
1 18450C 21040Y   21326.18264123  .00022017  00000-0  14756-2 0  3260
2 18450  53.0556  22.9087 0001239  65.4360 160.3691 15.06366014    13
